{
  "norad_id": 68676,
  "name": "STARLINK-37312",
  "history": [
    {
      "epoch": "2026-04-22T12:51:19.739232Z",
      "apogee_km": 343.1219192939934,
      "perigee_km": 339.65464424859874,
      "latitude_deg": 7.969212374425572e-05,
      "longitude_deg": -59.81998716941071,
      "height_km": 342.87807021437055,
      "semi_major_axis_km": 6719.525281771295,
      "eccentricity": 0.000258,
      "inclination_deg": 97.2833,
      "raan_deg": 343.6081,
      "arg_perigee_deg": 14.497,
      "mean_anomaly_deg": 345.637,
      "mean_motion_rev_day": 15.761403
    },
    {
      "epoch": "2026-04-24T13:38:39.373728Z",
      "apogee_km": 344.8238906592833,
      "perigee_km": 342.9591999408176,
      "latitude_deg": -3.374843174964767e-05,
      "longitude_deg": -71.52397086814752,
      "height_km": 346.9200515208139,
      "semi_major_axis_km": 6722.028545300051,
      "eccentricity": 0.0001387,
      "inclination_deg": 97.285,
      "raan_deg": 345.7396,
      "arg_perigee_deg": 81.5075,
      "mean_anomaly_deg": 278.6347,
      "mean_motion_rev_day": 15.75259957
    },
    {
      "epoch": "2026-04-24T13:38:39.374592Z",
      "apogee_km": 344.8236217781423,
      "perigee_km": 342.9594688219595,
      "latitude_deg": -2.9236768948498333e-05,
      "longitude_deg": -71.52397505152126,
      "height_km": 346.92009123958644,
      "semi_major_axis_km": 6722.028545300051,
      "eccentricity": 0.00013866,
      "inclination_deg": 97.285,
      "raan_deg": 345.7396,
      "arg_perigee_deg": 81.5075,
      "mean_anomaly_deg": 278.6347,
      "mean_motion_rev_day": 15.75259957
    },
    {
      "epoch": "2026-04-26T22:00:00.999936Z",
      "apogee_km": 345.09826009888366,
      "perigee_km": 343.0047017183906,
      "latitude_deg": -13.311970521780582,
      "longitude_deg": 165.01013972799063,
      "height_km": 350.1732955433126,
      "semi_major_axis_km": 6722.188480908637,
      "eccentricity": 0.00015572,
      "inclination_deg": 97.2846,
      "raan_deg": 348.2048,
      "arg_perigee_deg": 92.7083,
      "mean_anomaly_deg": 254.0948,
      "mean_motion_rev_day": 15.75203739
    },
    {
      "epoch": "2026-04-27T11:46:43.843008Z",
      "apogee_km": 344.9465071871982,
      "perigee_km": 342.97693226231786,
      "latitude_deg": 4.986553181692797e-05,
      "longitude_deg": -43.355727624035595,
      "height_km": 346.9017657302877,
      "semi_major_axis_km": 6722.098719724758,
      "eccentricity": 0.0001465,
      "inclination_deg": 97.2847,
      "raan_deg": 348.8068,
      "arg_perigee_deg": 76.7328,
      "mean_anomaly_deg": 283.4101,
      "mean_motion_rev_day": 15.7523529
    },
    {
      "epoch": "2026-04-28T21:19:16.877856Z",
      "apogee_km": 345.08049114134246,
      "perigee_km": 342.6404060674995,
      "latitude_deg": 3.058703969946207e-05,
      "longitude_deg": 173.59548875083337,
      "height_km": 347.2158809300328,
      "semi_major_axis_km": 6721.99744860442,
      "eccentricity": 0.0001815,
      "inclination_deg": 97.2847,
      "raan_deg": 350.2732,
      "arg_perigee_deg": 98.9527,
      "mean_anomaly_deg": 261.1944,
      "mean_motion_rev_day": 15.75270888
    }
  ]
}